0 COSMOS 876
1 09593U 76118F   13281.53627596  .00000012  00000-0  19806-3 0  7894
2 09593 074.0291 294.9236 0047066 174.1614 355.5776 12.41267921669311
0 COSMOS 876
1 09593U 76118F   13283.77959678  .00000013  00000-0  20961-3 0  7908
2 09593 074.0288 291.9904 0047032 170.8286 300.0180 12.41268080669598
0 COSMOS 876
1 09593U 76118F   13286.18940812 -.00000012  00000-0  27687-4 0  7910
2 09593 074.0287 288.8393 0046979 167.2480 268.4340 12.41268441669898
0 COSMOS 876
1 09593U 76118F   13288.46341818 -.00000027  00000-0 -84748-4 0  7923
2 09593 074.0289 285.8656 0046934 163.8526 350.0313 12.41268564670170
0 COSMOS 876
1 09593U 76118F   13290.48232477 -.00000029  00000-0 -10274-3 0  7933
2 09593 074.0292 283.2256 0046922 160.8654 011.6524 12.41268546670420
0 COSMOS 876
1 09593U 76118F   13292.72501316 -.00000004  00000-0  83985-4 0  7946
2 09593 074.0295 280.2931 0046884 157.5173 313.2877 12.41268330670700
0 COSMOS 876
1 09593U 76118F   13294.97067557  .00000017  00000-0  23739-3 0  7953
2 09593 074.0297 277.3570 0046842 154.1392 268.2365 12.41268194670987
